{
    "links": {
        "self": "http://www.neowsapp.com/rest/v1/neo/3147552?api_key=iIulBulltgU6a56xZRHN4H3l9WmuAYTsLGpBGhQ2"
    },
    "id": "3147552",
    "neo_reference_id": "3147552",
    "name": "(2003 BC46)",
    "designation": "2003 BC46",
    "nasa_jpl_url": "http://ssd.jpl.nasa.gov/sbdb.cgi?sstr=3147552",
    "absolute_magnitude_h": 23.6,
    "estimated_diameter": {
        "kilometers": {
            "estimated_diameter_min": 0.0506471459,
            "estimated_diameter_max": 0.1132504611
        },
        "meters": {
            "estimated_diameter_min": 50.6471458835,
            "estimated_diameter_max": 113.2504610618
        },
        "miles": {
            "estimated_diameter_min": 0.0314706677,
            "estimated_diameter_max": 0.0703705522
        },
        "feet": {
            "estimated_diameter_min": 166.1651821003,
            "estimated_diameter_max": 371.5566426699
        }
    },
    "is_potentially_hazardous_asteroid": false,
    "close_approach_data": [
        {
            "close_approach_date": "2003-01-19",
            "close_approach_date_full": "2003-Jan-19 16:42",
            "epoch_date_close_approach": 1042994520000,
            "relative_velocity": {
                "kilometers_per_second": "2.273761128",
                "kilometers_per_hour": "8185.5400609606",
                "miles_per_hour": "5086.176267323"
            },
            "miss_distance": {
                "astronomical": "0.2778729975",
                "lunar": "108.0925960275",
                "kilometers": "41569208.556515325",
                "miles": "25829908.448248485"
            },
            "orbiting_body": "Earth"
        }
    ],
    "orbital_data": {
        "orbit_id": "11",
        "orbit_determination_date": "2017-04-06 09:14:23",
        "first_observation_date": "2003-01-25",
        "last_observation_date": "2003-04-24",
        "data_arc_in_days": 89,
        "observations_used": 27,
        "orbit_uncertainty": "5",
        "minimum_orbit_intersection": ".258691",
        "jupiter_tisserand_invariant": "3.719",
        "epoch_osculation": "2459000.5",
        "eccentricity": ".3890805307922567",
        "semi_major_axis": "2.021103185138155",
        "inclination": "4.533408933517157",
        "ascending_node_longitude": "153.9512684855944",
        "orbital_period": "1049.496891565358",
        "perihelion_distance": "1.234731285078681",
        "perihelion_argument": "314.2718337872861",
        "aphelion_distance": "2.807475085197629",
        "perihelion_time": "2458940.028516681538",
        "mean_anomaly": "20.74301903093401",
        "mean_motion": ".3430215019151209",
        "equinox": "J2000",
        "orbit_class": {
            "orbit_class_type": "AMO",
            "orbit_class_description": "Near-Earth asteroid orbits similar to that of 1221 Amor",
            "orbit_class_range": "1.017 AU < q (perihelion) < 1.3 AU"
        }
    },
    "is_sentry_object": false
}